ONEWEB-0207             
1 48242U 21031AJ  25038.94542307  .00000175  00000+0  43864-3 0  9999
2 48242  87.9005  27.9541 0001748  79.5527 280.5800 13.14504272183367
ONEWEB-0208             
1 48243U 21031AK  25039.00331300 -.00000128  00000+0 -37965-3 0  9992
2 48243  87.9004  27.9567 0001999  85.0961 275.0397 13.14502840183388
ONEWEB-0200             
1 48244U 21031AL  25038.96683216  .00000118  00000+0  28479-3 0  9990
2 48244  87.9006  27.9581 0002038  85.3296 274.8067 13.14503698183301
ONEWEB-0217             
1 48245U 21031AM  25038.98269147 -.00000186  00000+0 -53581-3 0  9995
2 48245  87.9006  27.9393 0002164  86.2283 273.9094 13.14503250183268
ONEWEB-0211             
1 48767U 21045A   25038.87446787  .00000141  00000+0  34116-3 0  9996
2 48767  87.9111 357.6055 0001908  87.6335 272.5014 13.15552063179427
ONEWEB-0223             
1 48768U 21045B   25038.89668048 -.00000075  00000+0 -23220-3 0  9997
2 48768  87.9114 357.6155 0002109  96.0369 264.1002 13.15546480179416
ONEWEB-0230             
1 48769U 21045C   25038.94422969  .00000150  00000+0  36400-3 0  9990
2 48769  87.9094 357.6716 0001684  84.9707 275.1615 13.15549294179683
ONEWEB-0237             
1 48770U 21045D   25039.16131201  .00000050  00000+0  98491-4 0  9991
2 48770  87.9117 357.5762 0001971  93.3289 266.8067 13.15549582180566
